[{"OBJECT_NAME":"OBJECT H","OBJECT_ID":"2023-085H","EPOCH":"2026-03-09T22:31:53.157216","MEAN_MOTION":15.98088427,"ECCENTRICITY":0.00067726,"INCLINATION":97.4609,"RA_OF_ASC_NODE":195.6385,"ARG_OF_PERICENTER":287.7557,"MEAN_ANOMALY":72.298,"EPHEMERIS_TYPE":0,"CLASSIFICATION_TYPE":"U","NORAD_CAT_ID":57011,"ELEMENT_SET_NO":999,"REV_AT_EPOCH":15261,"BSTAR":0.001683407,"MEAN_MOTION_DOT":0.00765063,"MEAN_MOTION_DDOT":0.00026531755},{"OBJECT_NAME":"STARLINK-36373","OBJECT_ID":"2026-040AA","EPOCH":"2026-03-09T22:00:01.999584","MEAN_MOTION":16.06603265,"ECCENTRICITY":8.725e-5,"INCLINATION":97.2766,"RA_OF_ASC_NODE":17.1272,"ARG_OF_PERICENTER":96.133,"MEAN_ANOMALY":292.8748,"EPHEMERIS_TYPE":0,"CLASSIFICATION_TYPE":"U","NORAD_CAT_ID":68039,"ELEMENT_SET_NO":999,"REV_AT_EPOCH":241,"BSTAR":-0.0015605454,"MEAN_MOTION_DOT":-0.01162336,"MEAN_MOTION_DDOT":0.00046793907}]
